{
  "type": "FeatureCollection",
  "features": [
    {
      "type": "Feature",
      "properties": {
        "norad_id": 2807,
        "name": "OPS 7218 (TRANSIT 16)",
        "group": "nnss",
        "lat": 74.89211094712157,
        "lon": 172.82143030192762,
        "alt_km": 1046.509987630693,
        "timestamp": "2025-12-12T05:47:29.039423+00:00",
        "meta_object_name": "OPS 7218 (TRANSIT 16)",
        "meta_object_id": "1967-048A",
        "meta_epoch": "2025-12-12T00:14:13.523136",
        "meta_mean_motion": 13.50721953,
        "meta_eccentricity": 0.00219266,
        "meta_inclination": 89.6732,
        "meta_ra_of_asc_node": 354.0404,
        "meta_arg_of_pericenter": 115.9976,
        "meta_mean_anomaly": 304.4447,
        "meta_ephemeris_type": 0,
        "meta_classification_type": "U",
        "meta_norad_cat_id": 2807,
        "meta_element_set_no": 999,
        "meta_rev_at_epoch": 88266,
        "meta_bstar": 0.00019410267,
        "meta_mean_motion_dot": 1.35e-06,
        "meta_mean_motion_ddot": 0,
        "tle_line1": "1 02807U 67048A   25346.00987874  .00000135  00000+0  19410-3 0  9991",
        "tle_line2": "2 02807  89.6732 354.0404 0021926 115.9976 304.4447 13.50721953882664"
      },
      "geometry": {
        "type": "Point",
        "coordinates": [
          172.82143030192762,
          74.89211094712157
        ]
      }
    },
    {
      "type": "Feature",
      "properties": {
        "norad_id": 2965,
        "name": "OPS 4947 (TRANSIT 17)",
        "group": "nnss",
        "lat": 15.676363389906113,
        "lon": -155.73689349417103,
        "alt_km": 1049.4803322402431,
        "timestamp": "2025-12-12T05:47:29.039445+00:00",
        "meta_object_name": "OPS 4947 (TRANSIT 17)",
        "meta_object_id": "1967-092A",
        "meta_epoch": "2025-12-11T09:30:40.409856",
        "meta_mean_motion": 13.53453015,
        "meta_eccentricity": 0.00461041,
        "meta_inclination": 89.2497,
        "meta_ra_of_asc_node": 24.5381,
        "meta_arg_of_pericenter": 238.5289,
        "meta_mean_anomaly": 131.4019,
        "meta_ephemeris_type": 0,
        "meta_classification_type": "U",
        "meta_norad_cat_id": 2965,
        "meta_element_set_no": 999,
        "meta_rev_at_epoch": 87079,
        "meta_bstar": 0.0002507644,
        "meta_mean_motion_dot": 1.81e-06,
        "meta_mean_motion_ddot": 0,
        "tle_line1": "1 02965U 67092A   25345.39630104  .00000181  00000+0  25076-3 0  9993",
        "tle_line2": "2 02965  89.2497  24.5381 0046104 238.5289 131.4019 13.53453015870798"
      },
      "geometry": {
        "type": "Point",
        "coordinates": [
          -155.73689349417103,
          15.676363389906113
        ]
      }
    },
    {
      "type": "Feature",
      "properties": {
        "norad_id": 3133,
        "name": "OPS 7034 (TRANSIT 18)",
        "group": "nnss",
        "lat": -42.345703216651735,
        "lon": -86.33719504822042,
        "alt_km": 1119.176799762674,
        "timestamp": "2025-12-12T05:47:29.039459+00:00",
        "meta_object_name": "OPS 7034 (TRANSIT 18)",
        "meta_object_id": "1968-012A",
        "meta_epoch": "2025-12-11T13:05:39.509088",
        "meta_mean_motion": 13.51565248,
        "meta_eccentricity": 0.00737273,
        "meta_inclination": 90.0279,
        "meta_ra_of_asc_node": 273.6354,
        "meta_arg_of_pericenter": 172.5806,
        "meta_mean_anomaly": 1.6392,
        "meta_ephemeris_type": 0,
        "meta_classification_type": "U",
        "meta_norad_cat_id": 3133,
        "meta_element_set_no": 999,
        "meta_rev_at_epoch": 56902,
        "meta_bstar": 0.00025524024,
        "meta_mean_motion_dot": 1.79e-06,
        "meta_mean_motion_ddot": 0,
        "tle_line1": "1 03133U 68012A   25345.54559617  .00000179  00000+0  25524-3 0  9995",
        "tle_line2": "2 03133  90.0279 273.6354 0073727 172.5806   1.6392 13.51565248569027"
      },
      "geometry": {
        "type": "Point",
        "coordinates": [
          -86.33719504822042,
          -42.345703216651735
        ]
      }
    },
    {
      "type": "Feature",
      "properties": {
        "norad_id": 4507,
        "name": "NNSS 19 (TRANSIT 19)",
        "group": "nnss",
        "lat": -71.03832910351406,
        "lon": -125.45061407855306,
        "alt_km": 948.3902962028806,
        "timestamp": "2025-12-12T05:47:29.039471+00:00",
        "meta_object_name": "NNSS 19 (TRANSIT 19)",
        "meta_object_id": "1970-067A",
        "meta_epoch": "2025-12-11T05:15:12.507264",
        "meta_mean_motion": 13.51314509,
        "meta_eccentricity": 0.0170634,
        "meta_inclination": 90.0055,
        "meta_ra_of_asc_node": 234.5328,
        "meta_arg_of_pericenter": 297.8266,
        "meta_mean_anomaly": 60.5684,
        "meta_ephemeris_type": 0,
        "meta_classification_type": "U",
        "meta_norad_cat_id": 4507,
        "meta_element_set_no": 999,
        "meta_rev_at_epoch": 72201,
        "meta_bstar": 0.00023118437,
        "meta_mean_motion_dot": 1.72e-06,
        "meta_mean_motion_ddot": 0,
        "tle_line1": "1 04507U 70067A   25345.21889476  .00000172  00000+0  23118-3 0  9997",
        "tle_line2": "2 04507  90.0055 234.5328 0170634 297.8266  60.5684 13.51314509722018"
      },
      "geometry": {
        "type": "Point",
        "coordinates": [
          -125.45061407855306,
          -71.03832910351406
        ]
      }
    },
    {
      "type": "Feature",
      "properties": {
        "norad_id": 6909,
        "name": "NNSS 20 (TRANSIT 20)",
        "group": "nnss",
        "lat": -35.91957114729194,
        "lon": -105.04270582530258,
        "alt_km": 1049.1884332113723,
        "timestamp": "2025-12-12T05:47:29.039482+00:00",
        "meta_object_name": "NNSS 20 (TRANSIT 20)",
        "meta_object_id": "1973-081A",
        "meta_epoch": "2025-12-11T17:42:34.169472",
        "meta_mean_motion": 13.71433431,
        "meta_eccentricity": 0.01566261,
        "meta_inclination": 89.8562,
        "meta_ra_of_asc_node": 255.0691,
        "meta_arg_of_pericenter": 81.282,
        "meta_mean_anomaly": 280.6047,
        "meta_ephemeris_type": 0,
        "meta_classification_type": "U",
        "meta_norad_cat_id": 6909,
        "meta_element_set_no": 999,
        "meta_rev_at_epoch": 80347,
        "meta_bstar": 0.00032790531,
        "meta_mean_motion_dot": 3.34e-06,
        "meta_mean_motion_ddot": 0,
        "tle_line1": "1 06909U 73081A   25345.73789548  .00000334  00000+0  32791-3 0  9997",
        "tle_line2": "2 06909  89.8562 255.0691 0156626  81.2820 280.6047 13.71433431803478"
      },
      "geometry": {
        "type": "Point",
        "coordinates": [
          -105.04270582530258,
          -35.91957114729194
        ]
      }
    },
    {
      "type": "Feature",
      "properties": {
        "norad_id": 10457,
        "name": "TRANSAT",
        "group": "nnss",
        "lat": -61.34718622480148,
        "lon": 77.97020405414123,
        "alt_km": 1089.1103860903377,
        "timestamp": "2025-12-12T05:47:29.039493+00:00",
        "meta_object_name": "TRANSAT",
        "meta_object_id": "1977-106A",
        "meta_epoch": "2025-12-11T19:58:48.725760",
        "meta_mean_motion": 13.48943448,
        "meta_eccentricity": 0.00253097,
        "meta_inclination": 89.6481,
        "meta_ra_of_asc_node": 78.6291,
        "meta_arg_of_pericenter": 192.1247,
        "meta_mean_anomaly": 282.2762,
        "meta_ephemeris_type": 0,
        "meta_classification_type": "U",
        "meta_norad_cat_id": 10457,
        "meta_element_set_no": 999,
        "meta_rev_at_epoch": 36731,
        "meta_bstar": 0.00018010355,
        "meta_mean_motion_dot": 1.23e-06,
        "meta_mean_motion_ddot": 0,
        "tle_line1": "1 10457U 77106A   25345.83250840  .00000123  00000+0  18010-3 0  9995",
        "tle_line2": "2 10457  89.6481  78.6291 0025309 192.1247 282.2762 13.48943448367310"
      },
      "geometry": {
        "type": "Point",
        "coordinates": [
          77.97020405414123,
          -61.34718622480148
        ]
      }
    },
    {
      "type": "Feature",
      "properties": {
        "norad_id": 12458,
        "name": "NOVA 1",
        "group": "nnss",
        "lat": -66.12050754561221,
        "lon": -88.27426229818356,
        "alt_km": 1188.8588553797135,
        "timestamp": "2025-12-12T05:47:29.039504+00:00",
        "meta_object_name": "NOVA 1",
        "meta_object_id": "1981-044A",
        "meta_epoch": "2025-12-11T20:03:30.952224",
        "meta_mean_motion": 13.23278425,
        "meta_eccentricity": 0.00158864,
        "meta_inclination": 89.8524,
        "meta_ra_of_asc_node": 91.3979,
        "meta_arg_of_pericenter": 106.2161,
        "meta_mean_anomaly": 8.9777,
        "meta_ephemeris_type": 0,
        "meta_classification_type": "U",
        "meta_norad_cat_id": 12458,
        "meta_element_set_no": 999,
        "meta_rev_at_epoch": 15174,
        "meta_bstar": 0.00018009326,
        "meta_mean_motion_dot": 8.5e-07,
        "meta_mean_motion_ddot": 0,
        "tle_line1": "1 12458U 81044A   25345.83577491  .00000085  00000+0  18009-3 0  9993",
        "tle_line2": "2 12458  89.8524  91.3979 0015886 106.2161   8.9777 13.23278425151744"
      },
      "geometry": {
        "type": "Point",
        "coordinates": [
          -88.27426229818356,
          -66.12050754561221
        ]
      }
    }
  ]
}